{
"type": "FeatureCollection",
"crs": { "type": "name", "properties": { "name": "urn:ogc:def:crs:OGC:1.3:CRS84" } },
"features": [
{ "type": "Feature", "properties": { "OBJECTID": 2996601, "MESH1_ID": 5640, "MESH2_ID": 564003, "MESH3_ID": 56400350, "MESH4_ID": 564003501, "Shape_Leng": 0.020833332992, "Shape_Area": 2.6041666562600001e-05 }, "geometry": { "type": "Polygon", "coordinates": [ [ [ 140.381249999687725, 37.379166667008064 ], [ 140.381249999687725, 37.375000000049965 ], [ 140.375000000149839, 37.375000000049965 ], [ 140.375000000149839, 37.379166667008064 ], [ 140.381249999687725, 37.379166667008064 ] ] ] } },
{ "type": "Feature", "properties": { "OBJECTID": 2996608, "MESH1_ID": 5640, "MESH2_ID": 564003, "MESH3_ID": 56400351, "MESH4_ID": 564003514, "Shape_Leng": 0.020833332992099999, "Shape_Area": 2.60416646893e-05 }, "geometry": { "type": "Polygon", "coordinates": [ [ [ 140.375000000149839, 37.36666666703303 ], [ 140.375000000149839, 37.362500000074931 ], [ 140.368749999712691, 37.362500000074931 ], [ 140.368749999712691, 37.36666666703303 ], [ 140.375000000149839, 37.36666666703303 ] ] ] } },
{ "type": "Feature", "properties": { "OBJECTID": 2996607, "MESH1_ID": 5640, "MESH2_ID": 564003, "MESH3_ID": 56400351, "MESH4_ID": 564003513, "Shape_Leng": 0.020833331193100001, "Shape_Area": 2.6041660941399999e-05 }, "geometry": { "type": "Polygon", "coordinates": [ [ [ 140.412500000074942, 37.36666666703303 ], [ 140.412500000074942, 37.362500000074931 ], [ 140.40624999963768, 37.362500000074931 ], [ 140.40624999963768, 37.36666666703303 ], [ 140.412500000074942, 37.36666666703303 ] ] ] } },
{ "type": "Feature", "properties": { "OBJECTID": 2996239, "MESH1_ID": 5640, "MESH2_ID": 564002, "MESH3_ID": 56400259, "MESH4_ID": 564002593, "Shape_Leng": 0.020833331193300001, "Shape_Area": 2.6041660941899999e-05 }, "geometry": { "type": "Polygon", "coordinates": [ [ [ 140.40624999963768, 37.36666666703303 ], [ 140.40624999963768, 37.362500000074931 ], [ 140.400000000099908, 37.362500000074931 ], [ 140.400000000099908, 37.36666666703303 ], [ 140.40624999963768, 37.36666666703303 ] ] ] } },
{ "type": "Feature", "properties": { "OBJECTID": 2996604, "MESH1_ID": 5640, "MESH2_ID": 564003, "MESH3_ID": 56400350, "MESH4_ID": 564003504, "Shape_Leng": 0.020833332991899999, "Shape_Area": 2.60416646888e-05 }, "geometry": { "type": "Polygon", "coordinates": [ [ [ 140.393749999662646, 37.36666666703303 ], [ 140.393749999662646, 37.362500000074931 ], [ 140.387500000124874, 37.362500000074931 ], [ 140.387500000124874, 37.36666666703303 ], [ 140.393749999662646, 37.36666666703303 ] ] ] } },
{ "type": "Feature", "properties": { "OBJECTID": 2996611, "MESH1_ID": 5640, "MESH2_ID": 564003, "MESH3_ID": 56400352, "MESH4_ID": 564003523, "Shape_Leng": 0.020833331193100001, "Shape_Area": 2.6041660941399999e-05 }, "geometry": { "type": "Polygon", "coordinates": [ [ [ 140.387500000124874, 37.36666666703303 ], [ 140.387500000124874, 37.362500000074931 ], [ 140.381249999687725, 37.362500000074931 ], [ 140.381249999687725, 37.36666666703303 ], [ 140.387500000124874, 37.36666666703303 ] ] ] } },
{ "type": "Feature", "properties": { "OBJECTID": 2996612, "MESH1_ID": 5640, "MESH2_ID": 564003, "MESH3_ID": 56400352, "MESH4_ID": 564003524, "Shape_Leng": 0.020833332992099999, "Shape_Area": 2.60416646893e-05 }, "geometry": { "type": "Polygon", "coordinates": [ [ [ 140.381249999687725, 37.36666666703303 ], [ 140.381249999687725, 37.362500000074931 ], [ 140.375000000149839, 37.362500000074931 ], [ 140.375000000149839, 37.36666666703303 ], [ 140.381249999687725, 37.36666666703303 ] ] ] } },
{ "type": "Feature", "properties": { "OBJECTID": 2996603, "MESH1_ID": 5640, "MESH2_ID": 564003, "MESH3_ID": 56400350, "MESH4_ID": 564003503, "Shape_Leng": 0.020833331193300001, "Shape_Area": 2.6041660941899999e-05 }, "geometry": { "type": "Polygon", "coordinates": [ [ [ 140.412500000074942, 37.362500000074931 ], [ 140.412500000074942, 37.358333333116832 ], [ 140.40624999963768, 37.358333333116832 ], [ 140.40624999963768, 37.362500000074931 ], [ 140.412500000074942, 37.362500000074931 ] ] ] } },
{ "type": "Feature", "properties": { "OBJECTID": 2996240, "MESH1_ID": 5640, "MESH2_ID": 564002, "MESH3_ID": 56400259, "MESH4_ID": 564002594, "Shape_Leng": 0.020833332991899999, "Shape_Area": 2.60416646888e-05 }, "geometry": { "type": "Polygon", "coordinates": [ [ [ 140.381249999687725, 37.362500000074931 ], [ 140.381249999687725, 37.358333333116832 ], [ 140.375000000149839, 37.358333333116832 ], [ 140.375000000149839, 37.362500000074931 ], [ 140.381249999687725, 37.362500000074931 ] ] ] } },
{ "type": "Feature", "properties": { "OBJECTID": 2996615, "MESH1_ID": 5640, "MESH2_ID": 564003, "MESH3_ID": 56400353, "MESH4_ID": 564003533, "Shape_Leng": 0.020833331193100001, "Shape_Area": 2.6041660941399999e-05 }, "geometry": { "type": "Polygon", "coordinates": [ [ [ 140.387500000124874, 37.362500000074931 ], [ 140.387500000124874, 37.358333333116832 ], [ 140.381249999687725, 37.358333333116832 ], [ 140.381249999687725, 37.362500000074931 ], [ 140.387500000124874, 37.362500000074931 ] ] ] } },
{ "type": "Feature", "properties": { "OBJECTID": 2996653, "MESH1_ID": 5640, "MESH2_ID": 564003, "MESH3_ID": 56400363, "MESH4_ID": 564003631, "Shape_Leng": 0.020833332991699999, "Shape_Area": 2.6041666562200001e-05 }, "geometry": { "type": "Polygon", "coordinates": [ [ [ 140.393749999662646, 37.362500000074931 ], [ 140.393749999662646, 37.358333333116832 ], [ 140.387500000124874, 37.358333333116832 ], [ 140.387500000124874, 37.362500000074931 ], [ 140.393749999662646, 37.362500000074931 ] ] ] } },
{ "type": "Feature", "properties": { "OBJECTID": 2996645, "MESH1_ID": 5640, "MESH2_ID": 564003, "MESH3_ID": 56400361, "MESH4_ID": 564003611, "Shape_Leng": 0.020833332991699999, "Shape_Area": 2.6041666562200001e-05 }, "geometry": { "type": "Polygon", "coordinates": [ [ [ 140.400000000099908, 37.362500000074931 ], [ 140.400000000099908, 37.358333333116832 ], [ 140.393749999662646, 37.358333333116832 ], [ 140.393749999662646, 37.362500000074931 ], [ 140.400000000099908, 37.362500000074931 ] ] ] } },
{ "type": "Feature", "properties": { "OBJECTID": 2996649, "MESH1_ID": 5640, "MESH2_ID": 564003, "MESH3_ID": 56400362, "MESH4_ID": 564003621, "Shape_Leng": 0.020833332991699999, "Shape_Area": 2.6041666562200001e-05 }, "geometry": { "type": "Polygon", "coordinates": [ [ [ 140.40624999963768, 37.362500000074931 ], [ 140.40624999963768, 37.358333333116832 ], [ 140.400000000099908, 37.358333333116832 ], [ 140.400000000099908, 37.362500000074931 ], [ 140.40624999963768, 37.362500000074931 ] ] ] } },
{ "type": "Feature", "properties": { "OBJECTID": 2996277, "MESH1_ID": 5640, "MESH2_ID": 564002, "MESH3_ID": 56400269, "MESH4_ID": 564002691, "Shape_Leng": 0.020833332992, "Shape_Area": 2.6041666562600001e-05 }, "geometry": { "type": "Polygon", "coordinates": [ [ [ 140.375000000149839, 37.362500000074931 ], [ 140.375000000149839, 37.358333333116832 ], [ 140.368749999712691, 37.358333333116832 ], [ 140.368749999712691, 37.362500000074931 ], [ 140.375000000149839, 37.362500000074931 ] ] ] } },
{ "type": "Feature", "properties": { "OBJECTID": 2996642, "MESH1_ID": 5640, "MESH2_ID": 564003, "MESH3_ID": 56400360, "MESH4_ID": 564003602, "Shape_Leng": 0.020833334790500001, "Shape_Area": 2.6041670309600002e-05 }, "geometry": { "type": "Polygon", "coordinates": [ [ [ 140.387500000124874, 37.358333333116832 ], [ 140.387500000124874, 37.354166667057996 ], [ 140.381249999687725, 37.354166667057996 ], [ 140.381249999687725, 37.358333333116832 ], [ 140.387500000124874, 37.358333333116832 ] ] ] } },
{ "type": "Feature", "properties": { "OBJECTID": 2996278, "MESH1_ID": 5640, "MESH2_ID": 564002, "MESH3_ID": 56400269, "MESH4_ID": 564002692, "Shape_Leng": 0.020833334790500001, "Shape_Area": 2.6041670309600002e-05 }, "geometry": { "type": "Polygon", "coordinates": [ [ [ 140.412500000074942, 37.358333333116832 ], [ 140.412500000074942, 37.354166667057996 ], [ 140.40624999963768, 37.354166667057996 ], [ 140.40624999963768, 37.358333333116832 ], [ 140.412500000074942, 37.358333333116832 ] ] ] } },
{ "type": "Feature", "properties": { "OBJECTID": 2996280, "MESH1_ID": 5640, "MESH2_ID": 564002, "MESH3_ID": 56400269, "MESH4_ID": 564002694, "Shape_Leng": 0.020833334790600001, "Shape_Area": 2.60416703099e-05 }, "geometry": { "type": "Polygon", "coordinates": [ [ [ 140.381249999687725, 37.358333333116832 ], [ 140.381249999687725, 37.354166667057996 ], [ 140.375000000149839, 37.354166667057996 ], [ 140.375000000149839, 37.358333333116832 ], [ 140.381249999687725, 37.358333333116832 ] ] ] } },
{ "type": "Feature", "properties": { "OBJECTID": 2996643, "MESH1_ID": 5640, "MESH2_ID": 564003, "MESH3_ID": 56400360, "MESH4_ID": 564003603, "Shape_Leng": 0.020833332992099999, "Shape_Area": 2.6041666563e-05 }, "geometry": { "type": "Polygon", "coordinates": [ [ [ 140.40624999963768, 37.358333333116832 ], [ 140.40624999963768, 37.354166667057996 ], [ 140.400000000099908, 37.354166667057996 ], [ 140.400000000099908, 37.358333333116832 ], [ 140.40624999963768, 37.358333333116832 ] ] ] } },
{ "type": "Feature", "properties": { "OBJECTID": 2996279, "MESH1_ID": 5640, "MESH2_ID": 564002, "MESH3_ID": 56400269, "MESH4_ID": 564002693, "Shape_Leng": 0.020833332992099999, "Shape_Area": 2.6041666563e-05 }, "geometry": { "type": "Polygon", "coordinates": [ [ [ 140.393749999662646, 37.358333333116832 ], [ 140.393749999662646, 37.354166667057996 ], [ 140.387500000124874, 37.354166667057996 ], [ 140.387500000124874, 37.358333333116832 ], [ 140.393749999662646, 37.358333333116832 ] ] ] } },
{ "type": "Feature", "properties": { "OBJECTID": 2996652, "MESH1_ID": 5640, "MESH2_ID": 564003, "MESH3_ID": 56400362, "MESH4_ID": 564003624, "Shape_Leng": 0.0208333347908, "Shape_Area": 2.60416703104e-05 }, "geometry": { "type": "Polygon", "coordinates": [ [ [ 140.400000000099908, 37.36666666703303 ], [ 140.400000000099908, 37.362500000074931 ], [ 140.393749999662646, 37.362500000074931 ], [ 140.393749999662646, 37.36666666703303 ], [ 140.400000000099908, 37.36666666703303 ] ] ] } },
{ "type": "Feature", "properties": { "OBJECTID": 2996651, "MESH1_ID": 5640, "MESH2_ID": 564003, "MESH3_ID": 56400362, "MESH4_ID": 564003623, "Shape_Leng": 0.020833332991899999, "Shape_Area": 2.60416665625e-05 }, "geometry": { "type": "Polygon", "coordinates": [ [ [ 140.387500000124874, 37.370833333091809 ], [ 140.387500000124874, 37.36666666703303 ], [ 140.381249999687725, 37.36666666703303 ], [ 140.381249999687725, 37.370833333091809 ], [ 140.387500000124874, 37.370833333091809 ] ] ] } },
{ "type": "Feature", "properties": { "OBJECTID": 2996647, "MESH1_ID": 5640, "MESH2_ID": 564003, "MESH3_ID": 56400361, "MESH4_ID": 564003613, "Shape_Leng": 0.020833332991899999, "Shape_Area": 2.60416665625e-05 }, "geometry": { "type": "Polygon", "coordinates": [ [ [ 140.40624999963768, 37.379166667008064 ], [ 140.40624999963768, 37.375000000049965 ], [ 140.400000000099908, 37.375000000049965 ], [ 140.400000000099908, 37.379166667008064 ], [ 140.40624999963768, 37.379166667008064 ] ] ] } },
{ "type": "Feature", "properties": { "OBJECTID": 2996648, "MESH1_ID": 5640, "MESH2_ID": 564003, "MESH3_ID": 56400361, "MESH4_ID": 564003614, "Shape_Leng": 0.0208333347908, "Shape_Area": 2.60416703104e-05 }, "geometry": { "type": "Polygon", "coordinates": [ [ [ 140.387500000124874, 37.379166667008064 ], [ 140.387500000124874, 37.375000000049965 ], [ 140.381249999687725, 37.375000000049965 ], [ 140.381249999687725, 37.379166667008064 ], [ 140.387500000124874, 37.379166667008064 ] ] ] } },
{ "type": "Feature", "properties": { "OBJECTID": 2996079, "MESH1_ID": 5640, "MESH2_ID": 564002, "MESH3_ID": 56400219, "MESH4_ID": 564002193, "Shape_Leng": 0.020833332992, "Shape_Area": 2.6041666562600001e-05 }, "geometry": { "type": "Polygon", "coordinates": [ [ [ 140.400000000099908, 37.379166667008064 ], [ 140.400000000099908, 37.375000000049965 ], [ 140.393749999662646, 37.375000000049965 ], [ 140.393749999662646, 37.379166667008064 ], [ 140.400000000099908, 37.379166667008064 ] ] ] } },
{ "type": "Feature", "properties": { "OBJECTID": 2996444, "MESH1_ID": 5640, "MESH2_ID": 564003, "MESH3_ID": 56400310, "MESH4_ID": 564003104, "Shape_Leng": 0.020833334790500001, "Shape_Area": 2.6041670309600002e-05 }, "geometry": { "type": "Polygon", "coordinates": [ [ [ 140.393749999662646, 37.379166667008064 ], [ 140.393749999662646, 37.375000000049965 ], [ 140.387500000124874, 37.375000000049965 ], [ 140.387500000124874, 37.379166667008064 ], [ 140.393749999662646, 37.379166667008064 ] ] ] } },
{ "type": "Feature", "properties": { "OBJECTID": 2996447, "MESH1_ID": 5640, "MESH2_ID": 564003, "MESH3_ID": 56400311, "MESH4_ID": 564003113, "Shape_Leng": 0.020833332991699999, "Shape_Area": 2.6041666562200001e-05 }, "geometry": { "type": "Polygon", "coordinates": [ [ [ 140.400000000099908, 37.375000000049965 ], [ 140.400000000099908, 37.370833333091809 ], [ 140.393749999662646, 37.370833333091809 ], [ 140.393749999662646, 37.375000000049965 ], [ 140.400000000099908, 37.375000000049965 ] ] ] } },
{ "type": "Feature", "properties": { "OBJECTID": 2996443, "MESH1_ID": 5640, "MESH2_ID": 564003, "MESH3_ID": 56400310, "MESH4_ID": 564003103, "Shape_Leng": 0.020833332992, "Shape_Area": 2.6041666562600001e-05 }, "geometry": { "type": "Polygon", "coordinates": [ [ [ 140.393749999662646, 37.375000000049965 ], [ 140.393749999662646, 37.370833333091809 ], [ 140.387500000124874, 37.370833333091809 ], [ 140.387500000124874, 37.375000000049965 ], [ 140.393749999662646, 37.375000000049965 ] ] ] } },
{ "type": "Feature", "properties": { "OBJECTID": 2996455, "MESH1_ID": 5640, "MESH2_ID": 564003, "MESH3_ID": 56400313, "MESH4_ID": 564003133, "Shape_Leng": 0.020833332991699999, "Shape_Area": 2.6041666562200001e-05 }, "geometry": { "type": "Polygon", "coordinates": [ [ [ 140.375000000149839, 37.375000000049965 ], [ 140.375000000149839, 37.370833333091809 ], [ 140.368749999712691, 37.370833333091809 ], [ 140.368749999712691, 37.375000000049965 ], [ 140.375000000149839, 37.375000000049965 ] ] ] } },
{ "type": "Feature", "properties": { "OBJECTID": 2996080, "MESH1_ID": 5640, "MESH2_ID": 564002, "MESH3_ID": 56400219, "MESH4_ID": 564002194, "Shape_Leng": 0.020833334790500001, "Shape_Area": 2.6041670309600002e-05 }, "geometry": { "type": "Polygon", "coordinates": [ [ [ 140.381249999687725, 37.375000000049965 ], [ 140.381249999687725, 37.370833333091809 ], [ 140.375000000149839, 37.370833333091809 ], [ 140.375000000149839, 37.375000000049965 ], [ 140.381249999687725, 37.375000000049965 ] ] ] } },
{ "type": "Feature", "properties": { "OBJECTID": 2996448, "MESH1_ID": 5640, "MESH2_ID": 564003, "MESH3_ID": 56400311, "MESH4_ID": 564003114, "Shape_Leng": 0.0208333347907, "Shape_Area": 2.604167031e-05 }, "geometry": { "type": "Polygon", "coordinates": [ [ [ 140.387500000124874, 37.375000000049965 ], [ 140.387500000124874, 37.370833333091809 ], [ 140.381249999687725, 37.370833333091809 ], [ 140.381249999687725, 37.375000000049965 ], [ 140.387500000124874, 37.375000000049965 ] ] ] } },
{ "type": "Feature", "properties": { "OBJECTID": 2996118, "MESH1_ID": 5640, "MESH2_ID": 564002, "MESH3_ID": 56400229, "MESH4_ID": 564002292, "Shape_Leng": 0.020833334790500001, "Shape_Area": 2.6041670309600002e-05 }, "geometry": { "type": "Polygon", "coordinates": [ [ [ 140.40624999963768, 37.375000000049965 ], [ 140.40624999963768, 37.370833333091809 ], [ 140.400000000099908, 37.370833333091809 ], [ 140.400000000099908, 37.375000000049965 ], [ 140.40624999963768, 37.375000000049965 ] ] ] } },
{ "type": "Feature", "properties": { "OBJECTID": 2996485, "MESH1_ID": 5640, "MESH2_ID": 564003, "MESH3_ID": 56400321, "MESH4_ID": 564003211, "Shape_Leng": 0.020833332991699999, "Shape_Area": 2.6041666562200001e-05 }, "geometry": { "type": "Polygon", "coordinates": [ [ [ 140.412500000074942, 37.375000000049965 ], [ 140.412500000074942, 37.370833333091809 ], [ 140.40624999963768, 37.370833333091809 ], [ 140.40624999963768, 37.375000000049965 ], [ 140.412500000074942, 37.375000000049965 ] ] ] } },
{ "type": "Feature", "properties": { "OBJECTID": 2996493, "MESH1_ID": 5640, "MESH2_ID": 564003, "MESH3_ID": 56400323, "MESH4_ID": 564003231, "Shape_Leng": 0.020833332991699999, "Shape_Area": 2.6041666562200001e-05 }, "geometry": { "type": "Polygon", "coordinates": [ [ [ 140.400000000099908, 37.370833333091809 ], [ 140.400000000099908, 37.36666666703303 ], [ 140.393749999662646, 37.36666666703303 ], [ 140.393749999662646, 37.370833333091809 ], [ 140.400000000099908, 37.370833333091809 ] ] ] } },
{ "type": "Feature", "properties": { "OBJECTID": 2996490, "MESH1_ID": 5640, "MESH2_ID": 564003, "MESH3_ID": 56400322, "MESH4_ID": 564003222, "Shape_Leng": 0.0208333347907, "Shape_Area": 2.604167031e-05 }, "geometry": { "type": "Polygon", "coordinates": [ [ [ 140.393749999662646, 37.370833333091809 ], [ 140.393749999662646, 37.36666666703303 ], [ 140.387500000124874, 37.36666666703303 ], [ 140.387500000124874, 37.370833333091809 ], [ 140.393749999662646, 37.370833333091809 ] ] ] } },
{ "type": "Feature", "properties": { "OBJECTID": 2996481, "MESH1_ID": 5640, "MESH2_ID": 564003, "MESH3_ID": 56400320, "MESH4_ID": 564003201, "Shape_Leng": 0.020833332992, "Shape_Area": 2.6041666562600001e-05 }, "geometry": { "type": "Polygon", "coordinates": [ [ [ 140.375000000149839, 37.370833333091809 ], [ 140.375000000149839, 37.36666666703303 ], [ 140.368749999712691, 37.36666666703303 ], [ 140.368749999712691, 37.370833333091809 ], [ 140.375000000149839, 37.370833333091809 ] ] ] } },
{ "type": "Feature", "properties": { "OBJECTID": 2996117, "MESH1_ID": 5640, "MESH2_ID": 564002, "MESH3_ID": 56400229, "MESH4_ID": 564002291, "Shape_Leng": 0.020833332992, "Shape_Area": 2.6041666562600001e-05 }, "geometry": { "type": "Polygon", "coordinates": [ [ [ 140.412500000074942, 37.370833333091809 ], [ 140.412500000074942, 37.36666666703303 ], [ 140.40624999963768, 37.36666666703303 ], [ 140.40624999963768, 37.370833333091809 ], [ 140.412500000074942, 37.370833333091809 ] ] ] } },
{ "type": "Feature", "properties": { "OBJECTID": 2996482, "MESH1_ID": 5640, "MESH2_ID": 564003, "MESH3_ID": 56400320, "MESH4_ID": 564003202, "Shape_Leng": 0.020833334790500001, "Shape_Area": 2.6041670309600002e-05 }, "geometry": { "type": "Polygon", "coordinates": [ [ [ 140.381249999687725, 37.370833333091809 ], [ 140.381249999687725, 37.36666666703303 ], [ 140.375000000149839, 37.36666666703303 ], [ 140.375000000149839, 37.370833333091809 ], [ 140.381249999687725, 37.370833333091809 ] ] ] } },
{ "type": "Feature", "properties": { "OBJECTID": 2996488, "MESH1_ID": 5640, "MESH2_ID": 564003, "MESH3_ID": 56400321, "MESH4_ID": 564003214, "Shape_Leng": 0.020833332992199999, "Shape_Area": 2.6041664689699999e-05 }, "geometry": { "type": "Polygon", "coordinates": [ [ [ 140.40624999963768, 37.370833333091809 ], [ 140.40624999963768, 37.36666666703303 ], [ 140.400000000099908, 37.36666666703303 ], [ 140.400000000099908, 37.370833333091809 ], [ 140.40624999963768, 37.370833333091809 ] ] ] } },
{ "type": "Feature", "properties": { "OBJECTID": 2996495, "MESH1_ID": 5640, "MESH2_ID": 564003, "MESH3_ID": 56400323, "MESH4_ID": 564003233, "Shape_Leng": 0.020833331193200001, "Shape_Area": 2.6041660941799999e-05 }, "geometry": { "type": "Polygon", "coordinates": [ [ [ 140.412500000074942, 37.379166667008064 ], [ 140.412500000074942, 37.375000000049965 ], [ 140.40624999963768, 37.375000000049965 ], [ 140.40624999963768, 37.379166667008064 ], [ 140.412500000074942, 37.379166667008064 ] ] ] } },
{ "type": "Feature", "properties": { "OBJECTID": 2996120, "MESH1_ID": 5640, "MESH2_ID": 564002, "MESH3_ID": 56400229, "MESH4_ID": 564002294, "Shape_Leng": 0.020833332992, "Shape_Area": 2.6041664689199999e-05 }, "geometry": { "type": "Polygon", "coordinates": [ [ [ 140.375000000149839, 37.358333333116832 ], [ 140.375000000149839, 37.354166667057996 ], [ 140.368749999712691, 37.354166667057996 ], [ 140.368749999712691, 37.358333333116832 ], [ 140.375000000149839, 37.358333333116832 ] ] ] } },
{ "type": "Feature", "properties": { "OBJECTID": 2996487, "MESH1_ID": 5640, "MESH2_ID": 564003, "MESH3_ID": 56400321, "MESH4_ID": 564003213, "Shape_Leng": 0.020833331193200001, "Shape_Area": 2.6041660941799999e-05 }, "geometry": { "type": "Polygon", "coordinates": [ [ [ 140.400000000099908, 37.358333333116832 ], [ 140.400000000099908, 37.354166667057996 ], [ 140.393749999662646, 37.354166667057996 ], [ 140.393749999662646, 37.358333333116832 ], [ 140.400000000099908, 37.358333333116832 ] ] ] } },
{ "type": "Feature", "properties": { "OBJECTID": 2996492, "MESH1_ID": 5640, "MESH2_ID": 564003, "MESH3_ID": 56400322, "MESH4_ID": 564003224, "Shape_Leng": 0.020833332992199999, "Shape_Area": 2.6041664689699999e-05 }, "geometry": { "type": "Polygon", "coordinates": [ [ [ 140.375000000149839, 37.387500000024943 ], [ 140.375000000149839, 37.383333333066844 ], [ 140.368749999712691, 37.383333333066844 ], [ 140.368749999712691, 37.387500000024943 ], [ 140.375000000149839, 37.387500000024943 ] ] ] } },
{ "type": "Feature", "properties": { "OBJECTID": 2996119, "MESH1_ID": 5640, "MESH2_ID": 564002, "MESH3_ID": 56400229, "MESH4_ID": 564002293, "Shape_Leng": 0.020833331193400001, "Shape_Area": 2.6041660942299999e-05 }, "geometry": { "type": "Polygon", "coordinates": [ [ [ 140.381249999687725, 37.387500000024943 ], [ 140.381249999687725, 37.383333333066844 ], [ 140.375000000149839, 37.383333333066844 ], [ 140.375000000149839, 37.387500000024943 ], [ 140.381249999687725, 37.387500000024943 ] ] ] } },
{ "type": "Feature", "properties": { "OBJECTID": 2996484, "MESH1_ID": 5640, "MESH2_ID": 564003, "MESH3_ID": 56400320, "MESH4_ID": 564003204, "Shape_Leng": 0.020833332992, "Shape_Area": 2.6041664689199999e-05 }, "geometry": { "type": "Polygon", "coordinates": [ [ [ 140.387500000124874, 37.387500000024943 ], [ 140.387500000124874, 37.383333333066844 ], [ 140.381249999687725, 37.383333333066844 ], [ 140.381249999687725, 37.387500000024943 ], [ 140.387500000124874, 37.387500000024943 ] ] ] } },
{ "type": "Feature", "properties": { "OBJECTID": 2996533, "MESH1_ID": 5640, "MESH2_ID": 564003, "MESH3_ID": 56400333, "MESH4_ID": 564003331, "Shape_Leng": 0.020833332991699999, "Shape_Area": 2.6041666562200001e-05 }, "geometry": { "type": "Polygon", "coordinates": [ [ [ 140.412500000074942, 37.387500000024943 ], [ 140.412500000074942, 37.383333333066844 ], [ 140.40624999963768, 37.383333333066844 ], [ 140.40624999963768, 37.387500000024943 ], [ 140.412500000074942, 37.387500000024943 ] ] ] } },
{ "type": "Feature", "properties": { "OBJECTID": 2996529, "MESH1_ID": 5640, "MESH2_ID": 564003, "MESH3_ID": 56400332, "MESH4_ID": 564003321, "Shape_Leng": 0.020833332991699999, "Shape_Area": 2.6041666562200001e-05 }, "geometry": { "type": "Polygon", "coordinates": [ [ [ 140.40624999963768, 37.387500000024943 ], [ 140.40624999963768, 37.383333333066844 ], [ 140.400000000099908, 37.383333333066844 ], [ 140.400000000099908, 37.387500000024943 ], [ 140.40624999963768, 37.387500000024943 ] ] ] } },
{ "type": "Feature", "properties": { "OBJECTID": 2996526, "MESH1_ID": 5640, "MESH2_ID": 564003, "MESH3_ID": 56400331, "MESH4_ID": 564003312, "Shape_Leng": 0.0208333347907, "Shape_Area": 2.604167031e-05 }, "geometry": { "type": "Polygon", "coordinates": [ [ [ 140.393749999662646, 37.387500000024943 ], [ 140.393749999662646, 37.383333333066844 ], [ 140.387500000124874, 37.383333333066844 ], [ 140.387500000124874, 37.387500000024943 ], [ 140.393749999662646, 37.387500000024943 ] ] ] } },
{ "type": "Feature", "properties": { "OBJECTID": 2996157, "MESH1_ID": 5640, "MESH2_ID": 564002, "MESH3_ID": 56400239, "MESH4_ID": 564002391, "Shape_Leng": 0.020833332992, "Shape_Area": 2.6041666562600001e-05 }, "geometry": { "type": "Polygon", "coordinates": [ [ [ 140.400000000099908, 37.387500000024943 ], [ 140.400000000099908, 37.383333333066844 ], [ 140.393749999662646, 37.383333333066844 ], [ 140.393749999662646, 37.387500000024943 ], [ 140.400000000099908, 37.387500000024943 ] ] ] } },
{ "type": "Feature", "properties": { "OBJECTID": 2996521, "MESH1_ID": 5640, "MESH2_ID": 564003, "MESH3_ID": 56400330, "MESH4_ID": 564003301, "Shape_Leng": 0.020833332992, "Shape_Area": 2.6041666562600001e-05 }, "geometry": { "type": "Polygon", "coordinates": [ [ [ 140.375000000149839, 37.383333333066844 ], [ 140.375000000149839, 37.379166667008064 ], [ 140.368749999712691, 37.379166667008064 ], [ 140.368749999712691, 37.383333333066844 ], [ 140.375000000149839, 37.383333333066844 ] ] ] } },
{ "type": "Feature", "properties": { "OBJECTID": 2996530, "MESH1_ID": 5640, "MESH2_ID": 564003, "MESH3_ID": 56400332, "MESH4_ID": 564003322, "Shape_Leng": 0.0208333347907, "Shape_Area": 2.604167031e-05 }, "geometry": { "type": "Polygon", "coordinates": [ [ [ 140.381249999687725, 37.383333333066844 ], [ 140.381249999687725, 37.379166667008064 ], [ 140.375000000149839, 37.379166667008064 ], [ 140.375000000149839, 37.383333333066844 ], [ 140.381249999687725, 37.383333333066844 ] ] ] } },
{ "type": "Feature", "properties": { "OBJECTID": 2996523, "MESH1_ID": 5640, "MESH2_ID": 564003, "MESH3_ID": 56400330, "MESH4_ID": 564003303, "Shape_Leng": 0.020833332992, "Shape_Area": 2.6041666562600001e-05 }, "geometry": { "type": "Polygon", "coordinates": [ [ [ 140.412500000074942, 37.383333333066844 ], [ 140.412500000074942, 37.379166667008064 ], [ 140.40624999963768, 37.379166667008064 ], [ 140.40624999963768, 37.383333333066844 ], [ 140.412500000074942, 37.383333333066844 ] ] ] } },
{ "type": "Feature", "properties": { "OBJECTID": 2996524, "MESH1_ID": 5640, "MESH2_ID": 564003, "MESH3_ID": 56400330, "MESH4_ID": 564003304, "Shape_Leng": 0.020833334790500001, "Shape_Area": 2.6041670309600002e-05 }, "geometry": { "type": "Polygon", "coordinates": [ [ [ 140.40624999963768, 37.383333333066844 ], [ 140.40624999963768, 37.379166667008064 ], [ 140.400000000099908, 37.379166667008064 ], [ 140.400000000099908, 37.383333333066844 ], [ 140.40624999963768, 37.383333333066844 ] ] ] } },
{ "type": "Feature", "properties": { "OBJECTID": 2996527, "MESH1_ID": 5640, "MESH2_ID": 564003, "MESH3_ID": 56400331, "MESH4_ID": 564003313, "Shape_Leng": 0.020833332991699999, "Shape_Area": 2.6041666562200001e-05 }, "geometry": { "type": "Polygon", "coordinates": [ [ [ 140.387500000124874, 37.383333333066844 ], [ 140.387500000124874, 37.379166667008064 ], [ 140.381249999687725, 37.379166667008064 ], [ 140.381249999687725, 37.383333333066844 ], [ 140.387500000124874, 37.383333333066844 ] ] ] } },
{ "type": "Feature", "properties": { "OBJECTID": 2996532, "MESH1_ID": 5640, "MESH2_ID": 564003, "MESH3_ID": 56400332, "MESH4_ID": 564003324, "Shape_Leng": 0.0208333347907, "Shape_Area": 2.604167031e-05 }, "geometry": { "type": "Polygon", "coordinates": [ [ [ 140.393749999662646, 37.383333333066844 ], [ 140.393749999662646, 37.379166667008064 ], [ 140.387500000124874, 37.379166667008064 ], [ 140.387500000124874, 37.383333333066844 ], [ 140.393749999662646, 37.383333333066844 ] ] ] } },
{ "type": "Feature", "properties": { "OBJECTID": 2996160, "MESH1_ID": 5640, "MESH2_ID": 564002, "MESH3_ID": 56400239, "MESH4_ID": 564002394, "Shape_Leng": 0.020833334790500001, "Shape_Area": 2.6041670309600002e-05 }, "geometry": { "type": "Polygon", "coordinates": [ [ [ 140.400000000099908, 37.383333333066844 ], [ 140.400000000099908, 37.379166667008064 ], [ 140.393749999662646, 37.379166667008064 ], [ 140.393749999662646, 37.383333333066844 ], [ 140.400000000099908, 37.383333333066844 ] ] ] } },
{ "type": "Feature", "properties": { "OBJECTID": 2996561, "MESH1_ID": 5640, "MESH2_ID": 564003, "MESH3_ID": 56400340, "MESH4_ID": 564003401, "Shape_Leng": 0.020833331193300001, "Shape_Area": 2.6041660941899999e-05 }, "geometry": { "type": "Polygon", "coordinates": [ [ [ 140.387500000124874, 37.354166667057996 ], [ 140.387500000124874, 37.350000000099897 ], [ 140.381249999687725, 37.350000000099897 ], [ 140.381249999687725, 37.354166667057996 ], [ 140.387500000124874, 37.354166667057996 ] ] ] } },
{ "type": "Feature", "properties": { "OBJECTID": 2996198, "MESH1_ID": 5640, "MESH2_ID": 564002, "MESH3_ID": 56400249, "MESH4_ID": 564002492, "Shape_Leng": 0.020833332991899999, "Shape_Area": 2.60416646888e-05 }, "geometry": { "type": "Polygon", "coordinates": [ [ [ 140.381249999687725, 37.354166667057996 ], [ 140.381249999687725, 37.350000000099897 ], [ 140.375000000149839, 37.350000000099897 ], [ 140.375000000149839, 37.354166667057996 ], [ 140.381249999687725, 37.354166667057996 ] ] ] } },
{ "type": "Feature", "properties": { "OBJECTID": 2996565, "MESH1_ID": 5640, "MESH2_ID": 564003, "MESH3_ID": 56400341, "MESH4_ID": 564003411, "Shape_Leng": 0.020833331193100001, "Shape_Area": 2.6041660941399999e-05 }, "geometry": { "type": "Polygon", "coordinates": [ [ [ 140.412500000074942, 37.354166667057996 ], [ 140.412500000074942, 37.350000000099897 ], [ 140.40624999963768, 37.350000000099897 ], [ 140.40624999963768, 37.354166667057996 ], [ 140.412500000074942, 37.354166667057996 ] ] ] } },
{ "type": "Feature", "properties": { "OBJECTID": 2996573, "MESH1_ID": 5640, "MESH2_ID": 564003, "MESH3_ID": 56400343, "MESH4_ID": 564003431, "Shape_Leng": 0.020833331193100001, "Shape_Area": 2.6041660941399999e-05 }, "geometry": { "type": "Polygon", "coordinates": [ [ [ 140.40624999963768, 37.354166667057996 ], [ 140.40624999963768, 37.350000000099897 ], [ 140.400000000099908, 37.350000000099897 ], [ 140.400000000099908, 37.354166667057996 ], [ 140.40624999963768, 37.354166667057996 ] ] ] } },
{ "type": "Feature", "properties": { "OBJECTID": 2996197, "MESH1_ID": 5640, "MESH2_ID": 564002, "MESH3_ID": 56400249, "MESH4_ID": 564002491, "Shape_Leng": 0.020833331193300001, "Shape_Area": 2.6041660941899999e-05 }, "geometry": { "type": "Polygon", "coordinates": [ [ [ 140.400000000099908, 37.354166667057996 ], [ 140.400000000099908, 37.350000000099897 ], [ 140.393749999662646, 37.350000000099897 ], [ 140.393749999662646, 37.354166667057996 ], [ 140.400000000099908, 37.354166667057996 ] ] ] } },
{ "type": "Feature", "properties": { "OBJECTID": 2996572, "MESH1_ID": 5640, "MESH2_ID": 564003, "MESH3_ID": 56400342, "MESH4_ID": 564003424, "Shape_Leng": 0.0208333347908, "Shape_Area": 2.60416703104e-05 }, "geometry": { "type": "Polygon", "coordinates": [ [ [ 140.393749999662646, 37.354166667057996 ], [ 140.393749999662646, 37.350000000099897 ], [ 140.387500000124874, 37.350000000099897 ], [ 140.387500000124874, 37.354166667057996 ], [ 140.393749999662646, 37.354166667057996 ] ] ] } },
{ "type": "Feature", "properties": { "OBJECTID": 2996571, "MESH1_ID": 5640, "MESH2_ID": 564003, "MESH3_ID": 56400342, "MESH4_ID": 564003423, "Shape_Leng": 0.020833332991899999, "Shape_Area": 2.60416665625e-05 }, "geometry": { "type": "Polygon", "coordinates": [ [ [ 140.375000000149839, 37.354166667057996 ], [ 140.375000000149839, 37.350000000099897 ], [ 140.368749999712691, 37.350000000099897 ], [ 140.368749999712691, 37.354166667057996 ], [ 140.375000000149839, 37.354166667057996 ] ] ] } },
{ "type": "Feature", "properties": { "OBJECTID": 2996238, "MESH1_ID": 5640, "MESH2_ID": 564002, "MESH3_ID": 56400259, "MESH4_ID": 564002592, "Shape_Leng": 0.020833334790500001, "Shape_Area": 2.6041670309600002e-05 }, "geometry": { "type": "Polygon", "coordinates": [ [ [ 140.375000000149839, 37.379166667008064 ], [ 140.375000000149839, 37.375000000049965 ], [ 140.368749999712691, 37.375000000049965 ], [ 140.368749999712691, 37.379166667008064 ], [ 140.375000000149839, 37.379166667008064 ] ] ] } }
]
}
